[{"OBJECT_NAME":"STARLINK-35142","OBJECT_ID":"2025-194A","EPOCH":"2026-03-09T13:19:58.831392","MEAN_MOTION":15.05636301,"ECCENTRICITY":0.00015538,"INCLINATION":97.602,"RA_OF_ASC_NODE":284.1856,"ARG_OF_PERICENTER":85.541,"MEAN_ANOMALY":274.5994,"EPHEMERIS_TYPE":0,"CLASSIFICATION_TYPE":"U","NORAD_CAT_ID":65434,"ELEMENT_SET_NO":999,"REV_AT_EPOCH":2962,"BSTAR":0.00050523621,"MEAN_MOTION_DOT":7.234e-5,"MEAN_MOTION_DDOT":0},{"OBJECT_NAME":"CZ-4B DEB","OBJECT_ID":"2008-053J","EPOCH":"2026-03-09T11:59:22.469568","MEAN_MOTION":15.1637526,"ECCENTRICITY":0.00601661,"INCLINATION":97.7872,"RA_OF_ASC_NODE":170.5072,"ARG_OF_PERICENTER":304.792,"MEAN_ANOMALY":54.7659,"EPHEMERIS_TYPE":0,"CLASSIFICATION_TYPE":"U","NORAD_CAT_ID":35573,"ELEMENT_SET_NO":999,"REV_AT_EPOCH":91868,"BSTAR":0.0017688276,"MEAN_MOTION_DOT":0.00036031,"MEAN_MOTION_DDOT":0}]
